{
  "norad_id": 52846,
  "name": "STARLINK-4212",
  "history": [
    {
      "epoch": "2026-04-15T13:18:52.938432Z",
      "apogee_km": 540.6540182197186,
      "perigee_km": 538.780663264246,
      "latitude_deg": -4.2748430060308147e-07,
      "longitude_deg": -174.80184864254207,
      "height_km": 540.5563932950472,
      "semi_major_axis_km": 6917.854340741982,
      "eccentricity": 0.0001354,
      "inclination_deg": 53.2184,
      "raan_deg": 228.6339,
      "arg_perigee_deg": 86.5249,
      "mean_anomaly_deg": 273.5898,
      "mean_motion_rev_day": 15.08848522
    },
    {
      "epoch": "2026-04-16T14:45:03.295872Z",
      "apogee_km": 540.5891729854202,
      "perigee_km": 538.9537794216458,
      "latitude_deg": -3.3623441259815836e-05,
      "longitude_deg": 157.85424468700154,
      "height_km": 540.5620664092401,
      "semi_major_axis_km": 6917.908476203533,
      "eccentricity": 0.0001182,
      "inclination_deg": 53.2173,
      "raan_deg": 223.8778,
      "arg_perigee_deg": 82.5964,
      "mean_anomaly_deg": 277.5162,
      "mean_motion_rev_day": 15.08830811
    },
    {
      "epoch": "2026-04-17T14:35:51.081504Z",
      "apogee_km": 540.6429393998687,
      "perigee_km": 538.8987964682055,
      "latitude_deg": 6.089517402559361e-05,
      "longitude_deg": 154.71636424018735,
      "height_km": 540.6077602615416,
      "semi_major_axis_km": 6917.907867934037,
      "eccentricity": 0.00012606,
      "inclination_deg": 53.2181,
      "raan_deg": 219.4183,
      "arg_perigee_deg": 86.1195,
      "mean_anomaly_deg": 273.9942,
      "mean_motion_rev_day": 15.0883101
    },
    {
      "epoch": "2026-04-18T14:26:37.785408Z",
      "apogee_km": 540.618042285354,
      "perigee_km": 538.867818662945,
      "latitude_deg": -1.1018007961542523e-05,
      "longitude_deg": 151.58147860628694,
      "height_km": 540.5397095895942,
      "semi_major_axis_km": 6917.87993047415,
      "eccentricity": 0.0001265,
      "inclination_deg": 53.2178,
      "raan_deg": 214.9574,
      "arg_perigee_deg": 83.4967,
      "mean_anomaly_deg": 276.6169,
      "mean_motion_rev_day": 15.0884015
    },
    {
      "epoch": "2026-04-19T14:17:24.427104Z",
      "apogee_km": 540.5744672340388,
      "perigee_km": 538.8906577825237,
      "latitude_deg": -3.525533538493868e-05,
      "longitude_deg": 148.44698712863976,
      "height_km": 540.5895073443303,
      "semi_major_axis_km": 6917.869562508281,
      "eccentricity": 0.0001217,
      "inclination_deg": 53.2179,
      "raan_deg": 210.4966,
      "arg_perigee_deg": 87.3435,
      "mean_anomaly_deg": 272.7696,
      "mean_motion_rev_day": 15.08843542
    },
    {
      "epoch": "2026-04-20T14:08:12.569568Z",
      "apogee_km": 540.6537407164042,
      "perigee_km": 538.8708597087525,
      "latitude_deg": -4.8017275165907534e-05,
      "longitude_deg": 145.30643280331284,
      "height_km": 540.6126410088913,
      "semi_major_axis_km": 6917.899300212578,
      "eccentricity": 0.00012886,
      "inclination_deg": 53.2181,
      "raan_deg": 206.036,
      "arg_perigee_deg": 87.0713,
      "mean_anomaly_deg": 273.0426,
      "mean_motion_rev_day": 15.08833813
    },
    {
      "epoch": "2026-04-21T12:23:35.367648Z",
      "apogee_km": 540.7268579128486,
      "perigee_km": 538.6183095517272,
      "latitude_deg": -3.908963435166307e-06,
      "longitude_deg": 166.3821362279203,
      "height_km": 540.4719789042721,
      "semi_major_axis_km": 6917.809583732288,
      "eccentricity": 0.0001524,
      "inclination_deg": 53.2193,
      "raan_deg": 201.8707,
      "arg_perigee_deg": 84.7589,
      "mean_anomaly_deg": 275.3577,
      "mean_motion_rev_day": 15.08863165
    },
    {
      "epoch": "2026-04-22T12:14:23.161056Z",
      "apogee_km": 540.7285589488556,
      "perigee_km": 538.7900260497709,
      "latitude_deg": 2.5755040013256333e-05,
      "longitude_deg": 163.24547113441167,
      "height_km": 540.6503295386939,
      "semi_major_axis_km": 6917.896292499313,
      "eccentricity": 0.00014011,
      "inclination_deg": 53.2174,
      "raan_deg": 197.4125,
      "arg_perigee_deg": 89.7277,
      "mean_anomaly_deg": 270.3876,
      "mean_motion_rev_day": 15.08834797
    },
    {
      "epoch": "2026-04-23T12:05:10.027392Z",
      "apogee_km": 540.6583190617248,
      "perigee_km": 538.8181642474447,
      "latitude_deg": 3.6178776841140384e-05,
      "longitude_deg": 160.11156553047985,
      "height_km": 540.6281335737453,
      "semi_major_axis_km": 6917.875241654585,
      "eccentricity": 0.000133,
      "inclination_deg": 53.2187,
      "raan_deg": 192.9532,
      "arg_perigee_deg": 89.627,
      "mean_anomaly_deg": 270.4875,
      "mean_motion_rev_day": 15.08841684
    },
    {
      "epoch": "2026-04-24T11:55:57.318816Z",
      "apogee_km": 540.6412731045875,
      "perigee_km": 538.861992148275,
      "latitude_deg": -3.383416180313562e-05,
      "longitude_deg": 156.97422482841336,
      "height_km": 540.6201305536954,
      "semi_major_axis_km": 6917.888632626431,
      "eccentricity": 0.0001286,
      "inclination_deg": 53.2175,
      "raan_deg": 188.4923,
      "arg_perigee_deg": 88.2398,
      "mean_anomaly_deg": 271.8741,
      "mean_motion_rev_day": 15.08837303
    },
    {
      "epoch": "2026-04-25T13:22:07.569984Z",
      "apogee_km": 540.5083971089616,
      "perigee_km": 538.9726283011414,
      "latitude_deg": 1.2791426941452754e-05,
      "longitude_deg": 129.6286189804966,
      "height_km": 540.4357196432087,
      "semi_major_axis_km": 6917.877512705051,
      "eccentricity": 0.000111,
      "inclination_deg": 53.2167,
      "raan_deg": 183.734,
      "arg_perigee_deg": 74.8394,
      "mean_anomaly_deg": 285.2721,
      "mean_motion_rev_day": 15.08840941
    }
  ]
}